SPACEMOBILE-003         
1 61045U 24163A   26199.17082198  .00001268  00000+0  71565-4 0  9999
2 61045  52.9670 166.9598 0004461 203.3197 156.7595 15.20713856102482
SPACEMOBILE-005         
1 61046U 24163B   26199.28569049  .00002152  00000+0  11126-3 0  9996
2 61046  52.9757 166.3840 0008560 205.2960 154.7616 15.20722937102499
SPACEMOBILE-001         
1 61047U 24163C   26199.15258188  .00000103  00000+0  19359-4 0  9993
2 61047  52.9727 166.7053 0006783 200.9381 159.1336 15.20705143102477
SPACEMOBILE-002         
1 61048U 24163D   26199.26788476 -.00009691  00000+0 -42132-3 0  9991
2 61048  52.9785 166.2157 0005413 203.1224 156.9528 15.20679207102493
SPACEMOBILE-004         
1 61049U 24163E   26198.92178491  .00011552  00000+0  53167-3 0  9991
2 61049  52.9683 167.5779 0005787 225.7382 134.3138 15.20759542102447
SPACEMOBILE-006         
1 67232U 25309A   26199.23815390  .00001328  00000+0  78550-4 0  9999
2 67232  52.9934 189.3935 0009796 225.5162 134.5032 15.18662538 31317
SPACEMOBILE-008         
1 69589U 26139A   26199.19184720  .00000359  00000+0  37210-4 0  9990
2 69589  52.9950 121.8023 0005199  63.4511 296.7013 15.12804576  4674
SPACEMOBILE-009         
1 69590U 26139B   26199.06188045  .00000354  00000+0  36982-4 0  9992
2 69590  52.9941 122.4098 0005388  59.4835 300.6687 15.12697857  4651
SPACEMOBILE-010         
1 69591U 26139C   26199.13138269  .00001139  00000+0  81672-4 0  9992
2 69591  52.9947 122.1344 0005414  52.1260 308.0220 15.12535619  4675
